BEESAT-4                
1 41619U 16040W   21234.43936872  .00002431  00000-0  97569-4 0  9996
2 41619  97.2645 288.6759 0012393  97.9503 262.3142 15.25847354275077
CAS-2T & KS-1Q          
1 41847U 16066G   21234.42899079  .00000102  00000-0  25459-4 0  9995
2 41847  98.5962 293.8112 0365562  23.6242 338.1265 14.38226751251361
NAYIF-1 (EO-88)         
1 42017U 17008BX  21234.42508037  .00002699  00000-0  99821-4 0  9990
2 42017  97.3117 300.8435 0004719 220.3080 139.7811 15.28542041251339
ZHUHAI-1 02 (CAS-4B)    
1 42759U 17034B   21234.57855162  .00000509  00000-0  43797-4 0  9991
2 42759  43.0167 177.5184 0008522 227.8199 301.1514 15.10315535231143
ZHUHAI-1 01 (CAS-4A)    
1 42761U 17034D   21234.60081019  .00000450  00000-0  40197-4 0  9996
2 42761  43.0175 176.4052 0009304 228.2326 131.9402 15.10402864231151
MAX VALIER SAT          
1 42778U 17036P   21234.43436161  .00001431  00000-0  62155-4 0  9997
2 42778  97.2502 280.8714 0010225 309.0405  50.9921 15.23830224231334
RADFXSAT (FOX-1B)       
1 43017U 17073E   21234.54104240  .00000966  00000-0  78444-4 0  9997
2 43017  97.6993 135.8911 0256121  84.7484 278.2896 14.79651811202896
FOX-1D (AO-92)          
1 43137U 18004AC  21234.45690734  .00001639  00000-0  67516-4 0  9999
2 43137  97.4032 307.8116 0008194 349.8589  10.2482 15.25499917200729
DIWATA-2B               
1 43678U 18084H   21234.52327665  .00000506  00000-0  55985-4 0  9994
2 43678  97.9312   0.1733 0009707 184.1516 175.9619 14.91780167153285
ES'HAIL 2               
1 43700U 18090A   21234.25882543  .00000121  00000-0  00000-0 0  9995
2 43700   0.0148 110.6499 0002323  72.2936 266.8189  1.00274532 10025
FOX-1CLIFF (AO-95)      
1 43770U 18099N   21234.42812584  .00000219  00000-0  24982-4 0  9995
2 43770  97.6612 303.1469 0014129 191.0468 169.0445 14.95394399148318
ITASAT 1                
1 43786U 18099AE  21234.13390915  .00000695  00000-0  67452-4 0  9996
2 43786  97.6629 303.5831 0015101 185.3176 174.7887 14.95675756148304
JY1SAT (JO-97)          
1 43803U 18099AX  21234.42107541  .00000664  00000-0  64253-4 0  9991
2 43803  97.6595 303.6087 0014924 183.5769 176.5348 14.95940533148355
UWE-4                   
1 43880U 18111E   21234.49404240  .00001040  00000-0  95495-4 0  9995
2 43880  97.6811 141.0861 0010516 238.7279 121.2913 14.96947605144963
NEXUS (FO-99)           
1 43937U 19003F   21234.35851233  .00002268  00000-0  90094-4 0  9995
2 43937  97.1717 274.8931 0024362 135.6545 224.6651 15.26035548144318
PSAT2 (NO-104)          
1 44354U 19036R   21234.52300535  .00009654  00000-0  12127-3 0  9994
2 44354  28.5306  45.7980 0316754 273.6412  82.8015 15.15764569119004
BRICSAT2 (NO-103)       
1 44355U 19036S   21234.51245869  .00025882 -59078-5  24787-3 0  9993
2 44355  28.5268 349.1071 0246125   6.1479 354.2060 15.34372564119579
JAISAT-1                
1 44419U 19038F   21234.14137190  .00001467  00000-0  84144-4 0  9994
2 44419  97.5937 198.6269 0022719  86.0346 274.3481 15.13950468117733
DUCHIFAT-3              
1 44854U 19089C   21233.91530028  .00000427  00000-0  40433-4 0  9992
2 44854  36.9663  73.4814 0009748 308.5531  51.4330 14.99579137 92934
CAS-6 (TO-108)          
1 44881U 19093C   21234.52335379  .00000043  00000-0  12240-4 0  9996
2 44881  97.9218 312.6258 0016457  79.3210 280.9857 14.81472209 90517
RS-44 & BREEZE-KM R/B   
1 44909U 19096E   21234.29985722 -.00000007  00000-0 -65579-4 0  9992
2 44909  82.5177  69.0549 0216531 299.3212  58.6409 12.79710717 77241
ORBITAL FACTORY 2 (OF-2)
1 45113U 19071C   21233.98713055  .00004727  00000-0  14227-3 0  9990
2 45113  51.6419  79.6504 0012011 167.7345 192.3933 15.36249284 87246
HUSKYSAT-1 (HO-107)     
1 45119U 19071J   21234.58360743  .00003419  00000-0  10599-3 0  9990
2 45119  51.6411  76.1261 0011442 166.2815 193.8481 15.36241926 87338
BY70-2                  
1 45857U 20042B   21234.48858585  .00001085  00000-0  16043-3 0  9991
2 45857  97.9822 309.5516 0010755  10.9479 349.1967 14.77203990 61294
SALSAT                  
1 46495U 20068K   21234.54854644  .00000105  00000-0  12259-4 0  9995
2 46495  97.6966 171.6635 0016014 202.4854 157.5636 15.03523616 49265
BY70-3                  
1 46839U 20079N   21234.47129167  .00003181  00000-0  98598-4 0  9993
2 46839  97.2369 307.0230 0006248 342.6630 140.5290 15.34136992 44324
RADFXSAT-2 (AO-109)     
1 47311U 21002C   21234.45651903  .00001301  00000-0  67610-4 0  9995
2 47311  60.6866  44.0781 0042041  82.2719 278.3138 15.21880401 32911
UVSQ-SAT                
1 47438U 21006AB  21234.44174359  .00001049  00000-0  62554-4 0  9994
2 47438  97.4824 294.4725 0011547 224.8254 135.2045 15.13286105 32030
DIY-1 (ARDUIQUBE)       
1 47963U 21022AH  21234.47728831  .00003061  00000-0  20454-3 0  9996
2 47963  97.5517 135.6349 0021304  79.3345 281.0281 15.07549304 21842
